[{"OBJECT_NAME":"GAOFEN-1 04","OBJECT_ID":"2018-031D","EPOCH":"2026-03-09T23:14:02.472288","MEAN_MOTION":14.76437127,"ECCENTRICITY":0.00019063,"INCLINATION":98.0641,"RA_OF_ASC_NODE":131.7673,"ARG_OF_PERICENTER":79.011,"MEAN_ANOMALY":281.1314,"EPHEMERIS_TYPE":0,"CLASSIFICATION_TYPE":"U","NORAD_CAT_ID":43262,"ELEMENT_SET_NO":999,"REV_AT_EPOCH":42804,"BSTAR":0.00013515427,"MEAN_MOTION_DOT":8.88e-6,"MEAN_MOTION_DDOT":0},{"OBJECT_NAME":"COSMOS 2251 DEB","OBJECT_ID":"1993-036AQA","EPOCH":"2026-03-03T10:33:52.118784","MEAN_MOTION":14.75966715,"ECCENTRICITY":0.00308719,"INCLINATION":74.2747,"RA_OF_ASC_NODE":340.6525,"ARG_OF_PERICENTER":257.4573,"MEAN_ANOMALY":102.3148,"EPHEMERIS_TYPE":0,"CLASSIFICATION_TYPE":"U","NORAD_CAT_ID":35705,"ELEMENT_SET_NO":999,"REV_AT_EPOCH":87115,"BSTAR":0.0036746005,"MEAN_MOTION_DOT":0.00025545,"MEAN_MOTION_DDOT":0}]
